KUZGTU 1 (RS47S)        
1 57217U 23091AV  26166.46431375  .00010685  00000+0  37161-3 0  9991
2 57217  97.5068 230.9266 0012340 103.3088 256.9529 15.29828806164110
SONATE-2                
1 59112U 24043Q   26166.40491471  .00034026  00000+0  44395-3 0  9994
2 59112  97.5529 316.6913 0007010 201.6141 158.4820 15.58601059127614
MESAT1                  
1 60209U 24125G   26166.50582872  .00049033  00000+0  53785-3 0  9998
2 60209  97.2285  23.9502 0009422 209.4575 150.6154 15.63043551109300
OOV-CUBE (TUBSAT-30)    
1 60240U 24128F   26166.52507367  .00001784  00000+0  14574-3 0  9998
2 60240  61.9945 231.3695 0044801 133.3221 227.1619 15.02768621105865
COLIBRI-S (RS67S)       
1 61746U 24199M   26166.51010741  .00018854  00000+0  36610-3 0  9993
2 61746  97.2996  40.3495 0006273 287.4357  72.6207 15.47666671137157
HORS 3 (RS81S)          
1 61753U 24199U   26166.48062801  .00030545  00000+0  45808-3 0  9991
2 61753  97.2980  42.2879 0003719 288.7819  71.3032 15.54872191137295
HORS 4 (RS82S)          
1 61754U 24199V   26166.51050841  .00042367  00000+0  53296-3 0  9992
2 61754  97.2926  43.5090 0003031 269.9075  90.1835 15.59549072137381
SIT-2086                
1 61764U 24199AF  26166.52123300  .00032348  00000+0  51903-3 0  9996
2 61764  97.2936  42.8116 0004441 259.4183 100.6570 15.52989359134170
HYPERVIEW 1G (RS66S)    
1 61772U 24199AP  26166.47487541  .00122217  00000+0  79937-3 0  9991
2 61772  97.2877  46.1083 0003453 227.3539 132.7436 15.75449806134400
ALTAIR (RS65S)          
1 61779U 24199AW  26166.48441108  .00007852  00000+0  21875-3 0  9993
2 61779  97.3030  35.8469 0011283 318.1571  41.8810 15.37000687136852
ASRTU-1 (AO-123)        
1 61781U 24199AY  26166.47082123  .00006539  00000+0  19050-3 0  9996
2 61781  97.3001  35.1575 0012449 321.0936  38.9410 15.35654883133667
SAMSAT-IONOSPHERE (RS7*)
1 61784U 24199BB  26166.51752682  .00040488  00000+0  54988-3 0  9998
2 61784  97.2947  42.3662 0005851 285.1670  74.8939 15.57499572137305
RTU MIREA 1 (RS51S)     
1 61785U 24199BC  26166.48151829  .00047449  00000+0  56568-3 0  9991
2 61785  97.2935  43.1521 0005496 276.3584  83.7048 15.60926946134207
TEVEL2-4                
1 63213U 25052D   26166.16079356  .00014823  00000+0  44473-3 0  9999
2 63213  97.3913  62.5494 0004846 107.3580 252.8193 15.34549992 69809
TEVEL2-5                
1 63214U 25052E   26166.50714160  .00015702  00000+0  47332-3 0  9991
2 63214  97.3909  62.8448 0004756 107.9280 252.2482 15.34389584 69859
TEVEL2-6                
1 63215U 25052F   26166.45421808  .00014975  00000+0  45210-3 0  9994
2 63215  97.3915  62.7761 0004671 108.6521 251.5230 15.34350757 69848
TEVEL2-1                
1 63217U 25052H   26166.22168631  .00014089  00000+0  43283-3 0  9997
2 63217  97.3885  62.1701 0004698 117.4022 242.7699 15.33812138 69797
TEVEL2-3                
1 63218U 25052J   26166.21640006  .00014569  00000+0  44668-3 0  9999
2 63218  97.3890  62.1864 0004653 117.3895 242.7821 15.33867104 69792
TEVEL2-2                
1 63219U 25052K   26166.22201124  .00014328  00000+0  43999-3 0  9994
2 63219  97.3886  62.1729 0004671 117.7960 242.3756 15.33820586 69791
TEVEL2-9                
1 63237U 25052AD  26166.26221951  .00013263  00000+0  43321-3 0  9994
2 63237  97.3947  61.5923 0007638 136.2266 223.9582 15.31847587 69733
TEVEL2-7                
1 63238U 25052AE  26166.23742285  .00012882  00000+0  42471-3 0  9991
2 63238  97.3951  61.4847 0007732 136.5558 223.6294 15.31552974 69724
TEVEL2-8                
1 63239U 25052AF  26166.50699841  .00013370  00000+0  44078-3 0  9999
2 63239  97.3950  61.7304 0007754 136.5757 223.6096 15.31544661 69768
INNOSAT 16 (RS92S7)     
1 64878U 25155C   26166.49331882  .00004731  00000+0  18975-3 0  9997
2 64878  97.4562 133.6265 0010351 181.3188 178.8024 15.25441663 80414
GEOSCAN 6 (RS92S6)      
1 64879U 25155D   26166.48128044  .00008439  00000+0  29185-3 0  9995
2 64879  97.4555 135.0265 0008135 167.8516 192.2922 15.30124020 80502
GEOSCAN 1 (RS92S1)      
1 64880U 25155E   26166.48439098  .00009070  00000+0  30777-3 0  9992
2 64880  97.4551 135.1762 0008078 167.6005 192.5436 15.30717437 80514
239ALFEROV (RS61S)      
1 64881U 25155F   26166.52174134  .00012400  00000+0  39216-3 0  9993
2 64881  97.4552 135.7695 0007815 164.2669 195.8817 15.32901452 80551
GEOSCAN 2 (RS92S2)      
1 64890U 25155Q   26166.47837735  .00009328  00000+0  31381-3 0  9990
2 64890  97.4550 135.3219 0007922 154.4780 205.6853 15.30988326 80521
GEOSCAN 5 (RS92S5)      
1 64891U 25155R   26166.51111063  .00011909  00000+0  37312-3 0  9993
2 64891  97.4545 135.8957 0006508 167.7532 192.3869 15.33219486 80561
GEOSCAN 4 (RS92S4)      
1 64892U 25155S   26166.49547110  .00012062  00000+0  37606-3 0  9994
2 64892  97.4547 135.9278 0006579 167.4706 192.6701 15.33372666 80567
GEOSCAN 3 (RS92S3)      
1 64893U 25155T   26166.49840538  .00014435  00000+0  42229-3 0  9998
2 64893  97.4536 136.3556 0006515 165.6416 194.5014 15.35347339 80590
