OBJECT_NAME,OBJECT_ID,EPOCH,MEAN_MOTION,ECCENTRICITY,INCLINATION,RA_OF_ASC_NODE,ARG_OF_PERICENTER,MEAN_ANOMALY,EPHEMERIS_TYPE,CLASSIFICATION_TYPE,NORAD_CAT_ID,ELEMENT_SET_NO,REV_AT_EPOCH,BSTAR,MEAN_MOTION_DOT,MEAN_MOTION_DDOT
KUZGTU 1 (RS47S),2023-091AV,2026-06-15T11:08:36.708000,15.29828806,.001234,97.5068,230.9266,103.3088,256.9529,0,U,57217,999,16411,.37161E-3,.10685E-3,0
SONATE-2,2024-043Q,2026-06-15T09:43:04.630944,15.58601059,.000701,97.5529,316.6913,201.6141,158.4820,0,U,59112,999,12761,.44395E-3,.34026E-3,0
MESAT1,2024-125G,2026-06-15T12:08:23.601408,15.63043551,.0009422,97.2285,23.9502,209.4575,150.6154,0,U,60209,999,10930,.53785E-3,.49033E-3,0
OOV-CUBE (TUBSAT-30),2024-128F,2026-06-15T12:36:06.365088,15.02768621,.0044801,61.9945,231.3695,133.3221,227.1619,0,U,60240,999,10586,.14574E-3,.1784E-4,0
COLIBRI-S (RS67S),2024-199M,2026-06-15T12:14:33.280224,15.47666671,.0006273,97.2996,40.3495,287.4357,72.6207,0,U,61746,999,13715,.3661E-3,.18854E-3,0
HORS 3 (RS81S),2024-199U,2026-06-15T11:32:06.260064,15.54872191,.0003719,97.2980,42.2879,288.7819,71.3032,0,U,61753,999,13729,.45808E-3,.30545E-3,0
HORS 4 (RS82S),2024-199V,2026-06-15T12:15:07.926624,15.59549072,.0003031,97.2926,43.5090,269.9075,90.1835,0,U,61754,999,13738,.53296E-3,.42367E-3,0
SIT-2086,2024-199AF,2026-06-15T12:30:34.531200,15.52989359,.0004441,97.2936,42.8116,259.4183,100.6570,0,U,61764,999,13417,.51903E-3,.32348E-3,0
HYPERVIEW 1G (RS66S),2024-199AP,2026-06-15T11:23:49.235424,15.75449806,.0003453,97.2877,46.1083,227.3539,132.7436,0,U,61772,999,13440,.79937E-3,.122217E-2,0
ALTAIR (RS65S),2024-199AW,2026-06-15T11:37:33.117312,15.37000687,.0011283,97.3030,35.8469,318.1571,41.8810,0,U,61779,999,13685,.21875E-3,.7852E-4,0
ASRTU-1 (AO-123),2024-199AY,2026-06-15T11:17:58.954272,15.35654883,.0012449,97.3001,35.1575,321.0936,38.9410,0,U,61781,999,13366,.1905E-3,.6539E-4,0
SAMSAT-IONOSPHERE (RS75S),2024-199BB,2026-06-15T12:25:14.317248,15.57499572,.0005851,97.2947,42.3662,285.1670,74.8939,0,U,61784,999,13730,.54988E-3,.40488E-3,0
RTU MIREA 1 (RS51S),2024-199BC,2026-06-15T11:33:23.180256,15.60926946,.0005496,97.2935,43.1521,276.3584,83.7048,0,U,61785,999,13420,.56568E-3,.47449E-3,0
TEVEL2-4,2025-052D,2026-06-15T03:51:32.563584,15.34549992,.00048464,97.3913,62.5494,107.3580,252.8193,0,U,63213,999,6980,.44472787E-3,.14823E-3,0
TEVEL2-5,2025-052E,2026-06-15T12:10:17.034240,15.34389584,.0004756,97.3909,62.8448,107.9280,252.2482,0,U,63214,999,6985,.47332E-3,.15702E-3,0
TEVEL2-6,2025-052F,2026-06-15T10:54:04.442112,15.34350757,.0004671,97.3915,62.7761,108.6521,251.5230,0,U,63215,999,6984,.4521E-3,.14975E-3,0
TEVEL2-1,2025-052H,2026-06-15T05:19:13.697184,15.33812138,.0004698,97.3885,62.1701,117.4022,242.7699,0,U,63217,999,6979,.43283E-3,.14089E-3,0
TEVEL2-3,2025-052J,2026-06-15T05:11:36.965184,15.33867104,.0004653,97.3890,62.1864,117.3895,242.7821,0,U,63218,999,6979,.44668E-3,.14569E-3,0
TEVEL2-2,2025-052K,2026-06-15T05:19:41.771136,15.33820586,.0004671,97.3886,62.1729,117.7960,242.3756,0,U,63219,999,6979,.43999E-3,.14328E-3,0
TEVEL2-9,2025-052AD,2026-06-15T06:17:35.765664,15.31847587,.0007638,97.3947,61.5923,136.2266,223.9582,0,U,63237,999,6973,.43321E-3,.13263E-3,0
TEVEL2-7,2025-052AE,2026-06-15T05:41:53.334240,15.31552974,.0007732,97.3951,61.4847,136.5558,223.6294,0,U,63238,999,6972,.42471E-3,.12882E-3,0
TEVEL2-8,2025-052AF,2026-06-15T12:10:04.662624,15.31544661,.0007754,97.3950,61.7304,136.5757,223.6096,0,U,63239,999,6976,.44078E-3,.1337E-3,0
INNOSAT 16 (RS92S7),2025-155C,2026-06-15T11:50:22.746048,15.25441663,.0010351,97.4562,133.6265,181.3188,178.8024,0,U,64878,999,8041,.18975E-3,.4731E-4,0
GEOSCAN 6 (RS92S6),2025-155D,2026-06-15T11:33:02.630016,15.30124020,.0008135,97.4555,135.0265,167.8516,192.2922,0,U,64879,999,8050,.29185E-3,.8439E-4,0
GEOSCAN 1 (RS92S1),2025-155E,2026-06-15T11:37:31.380672,15.30717437,.0008078,97.4551,135.1762,167.6005,192.5436,0,U,64880,999,8051,.30777E-3,.907E-4,0
239ALFEROV (RS61S),2025-155F,2026-06-15T12:31:18.451776,15.32901452,.0007815,97.4552,135.7695,164.2669,195.8817,0,U,64881,999,8055,.39216E-3,.124E-3,0
GEOSCAN 2 (RS92S2),2025-155Q,2026-06-15T11:28:51.803040,15.30988326,.0007922,97.4550,135.3219,154.4780,205.6853,0,U,64890,999,8052,.31381E-3,.9328E-4,0
GEOSCAN 5 (RS92S5),2025-155R,2026-06-15T12:15:59.958432,15.33219486,.0006508,97.4545,135.8957,167.7532,192.3869,0,U,64891,999,8056,.37312E-3,.11909E-3,0
GEOSCAN 4 (RS92S4),2025-155S,2026-06-15T11:53:28.703040,15.33372666,.0006579,97.4547,135.9278,167.4706,192.6701,0,U,64892,999,8056,.37606E-3,.12062E-3,0
GEOSCAN 3 (RS92S3),2025-155T,2026-06-15T11:57:42.224832,15.35347339,.0006515,97.4536,136.3556,165.6416,194.5014,0,U,64893,999,8059,.42229E-3,.14435E-3,0
